SES-2                   
1 37809U 11049A   17345.80396431 -.00000202  00000-0  00000+0 0  9990
2 37809   0.0147  21.6232 0002053 231.0791  30.4211  1.00270405 22835
